NORAD_CAT_ID,OBJECT_NAME,OBJECT_TYPE,EPOCH,MEAN_MOTION,ECCENTRICITY,INCLINATION,RA_OF_ASC_NODE,ARG_OF_PERICENTER,MEAN_ANOMALY,BSTAR,MEAN_MOTION_DOT,MEAN_MOTION_DDOT,TLE_LINE0,TLE_LINE1,TLE_LINE2,SEMIMAJOR_AXIS,PERIOD,APOGEE,PERIGEE,DECAYED
54098.0,STARLINK-5217,PAYLOAD,2023-04-28 01:25:33,15.08868774,8.81e-05,53.2162,352.2627,102.9773,257.1317,0.00068635,0.00010661,0.0,0 STARLINK-5217,1 54098U 22136AZ  23118.05941125  .00010661  00000-0  68635-3 0  9997,2 54098  53.2162 352.2627 0000881 102.9773 257.1317 15.08868774 29450,6917.792,95.436,540.267,539.048,0.0
54098.0,STARLINK-5217,PAYLOAD,2023-04-28 15:44:01,15.08842927,5.06e-05,53.2162,349.5868,83.6445,276.4605,-0.00012642,-2.299e-05,0.0,0 STARLINK-5217,1 54098U 22136AZ  23118.65557542 -.00002299  00000-0 -12642-3 0  9996,2 54098  53.2162 349.5868 0000506  83.6445 276.4605 15.08842927 29547,6917.871,95.437,540.086,539.386,0.0
54098.0,STARLINK-5217,PAYLOAD,2023-04-29 01:16:20,15.08844099,6.71e-05,53.2163,347.801,103.4021,256.7046,-1.8857e-05,-5.88e-06,0.0,0 STARLINK-5217,1 54098U 22136AZ  23119.05301407 -.00000588  00000-0 -18857-4 0  9992,2 54098  53.2163 347.8010 0000671 103.4021 256.7046 15.08844099 29139,6917.868,95.437,540.197,539.269,0.0
54098.0,STARLINK-5217,PAYLOAD,2023-04-29 18:45:34,15.08849068,6.57e-05,53.2172,344.5287,93.8039,266.3029,0.00026282,3.899e-05,0.0,0 STARLINK-5217,1 54098U 22136AZ  23119.78165275  .00003899  00000-0  26282-3 0  9999,2 54098  53.2172 344.5287 0000657  93.8039 266.3029 15.08849068 29717,6917.853,95.437,540.172,539.263,0.0
54098.0,STARLINK-5217,PAYLOAD,2023-04-29 21:56:21,15.08852793,7.27e-05,53.2167,343.935,99.0284,261.0791,0.00056874,8.778e-05,0.0,0 STARLINK-5217,1 54098U 22136AZ  23119.91413241  .00008778  00000-0  56874-3 0  9994,2 54098  53.2167 343.9350 0000727  99.0284 261.0791 15.08852793 29260,6917.841,95.437,540.209,539.203,0.0
54098.0,STARLINK-5217,PAYLOAD,2023-04-30 20:11:45,15.08842988,9.27e-05,53.2168,339.7719,129.6177,230.4897,0.00010512,1.386e-05,0.0,0 STARLINK-5217,1 54098U 22136AZ  23120.84149325  .00001386  00000-0  10512-3 0  9994,2 54098  53.2168 339.7719 0000927 129.6177 230.4897 15.08842988 29875,6917.871,95.437,540.378,539.095,0.0
54098.0,STARLINK-5217,PAYLOAD,2023-05-01 00:57:54,15.08843276,7.45e-05,53.2166,338.8798,115.7984,244.3085,0.00012654,1.727e-05,0.0,0 STARLINK-5217,1 54098U 22136AZ  23121.04021378  .00001727  00000-0  12654-3 0  9992,2 54098  53.2166 338.8798 0000745 115.7984 244.3085 15.08843276 29436,6917.87,95.437,540.251,539.22,0.0
54098.0,STARLINK-5217,PAYLOAD,2023-05-01 21:37:55,15.08841907,9.63e-05,53.2168,335.0158,112.9899,247.1195,7.2967e-05,8.74e-06,0.0,0 STARLINK-5217,1 54098U 22136AZ  23121.90133567  .00000874  00000-0  72967-4 0  9997,2 54098  53.2168 335.0158 0000963 112.9899 247.1195 15.08841907 30033,6917.875,95.437,540.406,539.073,0.0
54098.0,STARLINK-5217,PAYLOAD,2023-05-02 02:24:04,15.08847549,7.97e-05,53.2166,334.1218,117.6044,242.5029,0.00022008,3.217e-05,0.0,0 STARLINK-5217,1 54098U 22136AZ  23122.10005291  .00003217  00000-0  22008-3 0  9996,2 54098  53.2166 334.1218 0000797 117.6044 242.5029 15.08847549 29599,6917.857,95.437,540.274,539.171,0.0
54098.0,STARLINK-5217,PAYLOAD,2023-05-02 21:28:42,15.08845797,8.38e-05,53.2164,330.5542,102.3347,257.7739,0.0001707,2.43e-05,0.0,0 STARLINK-5217,1 54098U 22136AZ  23122.89493403  .00002430  00000-0  17070-3 0  9997,2 54098  53.2164 330.5542 0000838 102.3347 257.7739 15.08845797 29713,6917.863,95.437,540.307,539.148,0.0
54098.0,STARLINK-5217,PAYLOAD,2023-05-03 02:14:51,15.08850787,8.24e-05,53.2165,329.6606,112.6918,247.4162,0.00022357,3.273e-05,0.0,0 STARLINK-5217,1 54098U 22136AZ  23123.09365019  .00003273  00000-0  22357-3 0  9991,2 54098  53.2165 329.6606 0000824 112.6918 247.4162 15.08850787 30215,6917.847,95.437,540.282,539.142,0.0
54098.0,STARLINK-5217,PAYLOAD,2023-05-03 07:01:01,15.08829275,3.79e-05,53.217,328.7696,105.2086,254.8948,-9.0878e-05,-1.733e-05,0.0,0 STARLINK-5217,1 54098U 22136AZ  23123.29238019 -.00001733  00000-0 -90878-4 0  9997,2 54098  53.2170 328.7696 0000379 105.2086 254.8948 15.08829275 30244,6917.913,95.438,540.04,539.516,0.0
54098.0,STARLINK-5217,PAYLOAD,2023-05-03 19:44:06,15.08838204,6.41e-05,53.2165,326.3905,89.2775,270.829,1.2005e-05,-9.7e-07,0.0,0 STARLINK-5217,1 54098U 22136AZ  23123.82229876 -.00000097  00000-0  12005-4 0  9994,2 54098  53.2165 326.3905 0000641  89.2775 270.8290 15.08838204 30322,6917.886,95.438,540.194,539.307,0.0
54098.0,STARLINK-5217,PAYLOAD,2023-05-04 06:51:48,15.08843672,6.07e-05,53.2159,324.3079,85.8502,274.256,8.1149e-05,1.004e-05,0.0,0 STARLINK-5217,1 54098U 22136AZ  23124.28597580  .00001004  00000-0  81149-4 0  9998,2 54098  53.2159 324.3079 0000607  85.8502 274.2560 15.08843672 29924,6917.869,95.437,540.154,539.314,0.0
54098.0,STARLINK-5217,PAYLOAD,2023-05-04 19:34:53,15.08851936,6.42e-05,53.2154,321.9274,102.522,257.5844,0.00019007,2.74e-05,0.0,0 STARLINK-5217,1 54098U 22136AZ  23124.81589256  .00002740  00000-0  19007-3 0  9999,2 54098  53.2154 321.9274 0000642 102.5220 257.5844 15.08851936 30475,6917.844,95.437,540.153,539.265,0.0
54098.0,STARLINK-5217,PAYLOAD,2023-05-05 16:14:54,15.08839267,5.8e-05,53.2149,318.0623,81.1916,278.9142,0.00011714,1.577e-05,0.0,0 STARLINK-5217,1 54098U 22136AZ  23125.67701922  .00001577  00000-0  11714-3 0  9994,2 54098  53.2149 318.0623 0000580  81.1916 278.9142 15.08839267 30605,6917.883,95.438,540.149,539.346,0.0
54098.0,STARLINK-5217,PAYLOAD,2023-05-05 19:25:40,15.08840614,6.25e-05,53.2149,317.4687,71.5809,288.5251,0.00015397,2.164e-05,0.0,0 STARLINK-5217,1 54098U 22136AZ  23125.80949949  .00002164  00000-0  15397-3 0  9996,2 54098  53.2149 317.4687 0000625  71.5809 288.5251 15.08840614 30158,6917.879,95.438,540.176,539.311,0.0
54098.0,STARLINK-5217,PAYLOAD,2023-05-05 22:36:26,15.08847097,5.88e-05,53.2142,316.8736,63.1158,296.9894,0.00018016,2.581e-05,0.0,0 STARLINK-5217,1 54098U 22136AZ  23125.94197587  .00002581  00000-0  18016-3 0  9998,2 54098  53.2142 316.8736 0000588  63.1158 296.9894 15.08847097 30171,6917.859,95.437,540.13,539.317,0.0
54098.0,STARLINK-5217,PAYLOAD,2023-05-06 19:16:27,15.08849558,6.51e-05,53.2151,313.0075,78.9274,281.1792,0.00018186,2.609e-05,0.0,0 STARLINK-5217,1 54098U 22136AZ  23126.80309490  .00002609  00000-0  18186-3 0  9991,2 54098  53.2151 313.0075 0000651  78.9274 281.1792 15.08849558 30773,6917.851,95.437,540.167,539.266,0.0
54098.0,STARLINK-5217,PAYLOAD,2023-05-07 04:48:46,15.08845519,7.35e-05,53.2154,311.2235,71.9764,288.1308,8.2463e-05,1.025e-05,0.0,0 STARLINK-5217,1 54098U 22136AZ  23127.20053512  .00001025  00000-0  82463-4 0  9998,2 54098  53.2154 311.2235 0000735  71.9764 288.1308 15.08845519 30362,6917.864,95.437,540.237,539.22,0.0
54098.0,STARLINK-5217,PAYLOAD,2023-05-07 19:07:15,15.08833554,7.07e-05,53.2145,308.5485,71.3674,288.7395,2.0104e-05,3.2e-07,0.0,0 STARLINK-5217,1 54098U 22136AZ  23127.79670340  .00000032  00000-0  20104-4 0  9997,2 54098  53.2145 308.5485 0000707  71.3674 288.7395 15.08833554 30921,6917.9,95.438,540.254,539.276,0.0
54098.0,STARLINK-5217,PAYLOAD,2023-05-08 04:39:33,15.08842296,7.25e-05,53.2153,306.7642,76.6173,283.49,6.7686e-05,7.9e-06,0.0,0 STARLINK-5217,1 54098U 22136AZ  23128.19414076  .00000790  00000-0  67686-4 0  9991,2 54098  53.2153 306.7642 0000725  76.6173 283.4900 15.08842296 30980,6917.873,95.437,540.24,539.237,0.0
54098.0,STARLINK-5217,PAYLOAD,2023-05-08 18:58:02,15.08844015,7.14e-05,53.2146,304.089,108.7241,251.3828,5.0256e-05,5.12e-06,0.0,0 STARLINK-5217,1 54098U 22136AZ  23128.79030118  .00000512  00000-0  50256-4 0  9995,2 54098  53.2146 304.0890 0000714 108.7241 251.3828 15.08844015 30602,6917.868,95.437,540.227,539.239,0.0
54098.0,STARLINK-5217,PAYLOAD,2023-05-09 10:51:54,15.08822353,7.82e-05,53.215,301.1148,113.3933,246.7142,0.00028209,4.202e-05,0.0,0 STARLINK-5217,1 54098U 22136AZ  23129.45271165  .00004202  00000-0  28209-3 0  9990,2 54098  53.2150 301.1148 0000782 113.3933 246.7142 15.08822353 31177,6917.934,95.439,540.34,539.258,0.0
54098.0,STARLINK-5217,PAYLOAD,2023-05-10 04:21:07,15.08845844,7.73e-05,53.2163,297.8429,82.1631,277.9449,0.00012404,1.687e-05,0.0,0 STARLINK-5217,1 54098U 22136AZ  23130.18134134  .00001687  00000-0  12404-3 0  9990,2 54098  53.2163 297.8429 0000773  82.1631 277.9449 15.08845844 30818,6917.863,95.437,540.262,539.193,0.0
54098.0,STARLINK-5217,PAYLOAD,2023-05-10 18:39:36,15.08846657,6.83e-05,53.2155,295.1672,85.0914,275.0156,8.9397e-05,1.136e-05,0.0,0 STARLINK-5217,1 54098U 22136AZ  23130.77750146  .00001136  00000-0  89397-4 0  9997,2 54098  53.2155 295.1672 0000683  85.0914 275.0156 15.08846657 30903,6917.86,95.437,540.198,539.253,0.0
54098.0,STARLINK-5217,PAYLOAD,2023-05-11 04:11:55,15.08844349,6.23e-05,53.2155,293.3825,82.3619,277.7444,9.6233e-05,1.244e-05,0.0,0 STARLINK-5217,1 54098U 22136AZ  23131.17494227  .00001244  00000-0  96233-4 0  9994,2 54098  53.2155 293.3825 0000623  82.3619 277.7444 15.08844349 31433,6917.867,95.437,540.163,539.301,0.0
54098.0,STARLINK-5217,PAYLOAD,2023-05-11 16:55:00,15.08839385,7.88e-05,53.2154,291.0035,83.3893,276.7189,6.1231e-05,6.87e-06,0.0,0 STARLINK-5217,1 54098U 22136AZ  23131.70486690  .00000687  00000-0  61231-4 0  9998,2 54098  53.2154 291.0035 0000788  83.3893 276.7189 15.08839385 31515,6917.882,95.438,540.292,539.202,0.0
54098.0,STARLINK-5217,PAYLOAD,2023-05-12 04:02:41,15.08846973,6.46e-05,53.2151,288.9224,89.3003,270.8063,3.4607e-05,2.63e-06,0.0,0 STARLINK-5217,1 54098U 22136AZ  23132.16854125  .00000263  00000-0  34607-4 0  9998,2 54098  53.2151 288.9224 0000646  89.3003 270.8063 15.08846973 31112,6917.859,95.437,540.171,539.277,0.0
54098.0,STARLINK-5217,PAYLOAD,2023-05-12 16:45:47,15.08841719,8.4e-05,53.2165,286.5403,94.8858,265.223,1.1239e-05,-1.09e-06,0.0,0 STARLINK-5217,1 54098U 22136AZ  23132.69846632 -.00000109  00000-0  11239-4 0  9996,2 54098  53.2165 286.5403 0000840  94.8858 265.2230 15.08841719 31190,6917.875,95.437,540.321,539.159,0.0
